STARLINK-30090          
1 56293U 23056H   25125.59636664  .00000715  00000+0  68009-4 0  9990
2 56293  43.0019  84.7869 0001063 269.9872  90.0848 15.02540667113672
STARLINK-30049          
1 56294U 23056J   25125.92542480  .00000809  00000+0  74920-4 0  9993
2 56294  43.0037  82.8938 0001123 271.9825  88.0889 15.02537173113723
STARLINK-30083          
1 56295U 23056K   25125.85278696  .00000910  00000+0  82425-4 0  9993
2 56295  43.0038  57.1201 0001043 272.2460  87.8263 15.02540139114015
STARLINK-30089          
1 56296U 23056L   25126.11895252 -.00000286  00000+0 -61153-5 0  9991
2 56296  43.0039  42.6388 0001433 268.4467  91.6211 15.02539003113607
STARLINK-30086          
1 56297U 23056M   25125.24066959  .00000621  00000+0  61042-4 0  9996
2 56297  43.0036  86.3588 0001133 277.6677  82.4036 15.02532013113623
STARLINK-30109          
1 56298U 23056N   25125.97858478 -.00001241  00000+0 -76839-4 0  9993
2 56298  43.0033  82.4367 0001170 274.7578  85.3130 15.02524486113141
STARLINK-30108          
1 56299U 23056P   25125.87918108  .00000791  00000+0  73632-4 0  9995
2 56299  43.0052  70.4176 0000882 260.4004  99.6739 15.02536666113925
STARLINK-30104          
1 56300U 23056Q   25125.26720072  .00000938  00000+0  84502-4 0  9993
2 56300  43.0030  85.7826 0000925 259.7086 100.3652 15.02534002113694
STARLINK-30101          
1 56301U 23056R   25126.22785451 -.00000413  00000+0 -15469-4 0  9999
2 56301  43.0034  80.9300 0000863 271.1501  88.9242 15.02544996113187
STARLINK-30111          
1 56302U 23056S   25126.22119185  .00006310  00000+0  48153-3 0  9990
2 56302  43.0028  80.8179 0001642 305.8668  54.2021 15.02556368113175
STARLINK-30099          
1 56304U 23056U   25125.88546340  .00001000  00000+0  89058-4 0  9991
2 56304  43.0041  82.5868 0001066 260.5025  99.5697 15.02536256113782
STARLINK-30094          
1 56305U 23056V   25125.88212789  .00000340  00000+0  40265-4 0  9992
2 56305  43.0035  82.5493 0001159 271.4134  88.6576 15.02539214113787
STARLINK-30112          
1 56306U 23056W   25126.15803235 -.00001484  00000+0 -94827-4 0  9991
2 56306  43.0048  81.2030 0000932 275.8729  84.2007 15.02527937113174
STARLINK-6038           
1 56317U 23058A   25125.94307666  .00000637  00000+0  54205-4 0  9991
2 56317  97.6549 128.0961 0003284  78.8350 281.3244 15.01262699111603
