[
  {
    "OBJECT_NAME": "STARLINK-30090",
    "OBJECT_ID": "2023-056H",
    "EPOCH": "2025-05-05T14:18:46.077696",
    "MEAN_MOTION": 15.02540667,
    "ECCENTRICITY": 0.0001063,
    "INCLINATION": 43.0019,
    "RA_OF_ASC_NODE": 84.7869,
    "ARG_OF_PERICENTER": 269.9872,
    "MEAN_ANOMALY": 90.0848,
    "EPHEMERIS_TYPE": 0,
    "CLASSIFICATION_TYPE": "U",
    "NORAD_CAT_ID": 56293,
    "ELEMENT_SET_NO": 999,
    "REV_AT_EPOCH": 11367,
    "BSTAR": 6.8009e-05,
    "MEAN_MOTION_DOT": 7.15e-06,
    "MEAN_MOTION_DDOT": 0
  },
  {
    "OBJECT_NAME": "STARLINK-30049",
    "OBJECT_ID": "2023-056J",
    "EPOCH": "2025-05-05T22:12:36.702720",
    "MEAN_MOTION": 15.02537173,
    "ECCENTRICITY": 0.0001123,
    "INCLINATION": 43.0037,
    "RA_OF_ASC_NODE": 82.8938,
    "ARG_OF_PERICENTER": 271.9825,
    "MEAN_ANOMALY": 88.0889,
    "EPHEMERIS_TYPE": 0,
    "CLASSIFICATION_TYPE": "U",
    "NORAD_CAT_ID": 56294,
    "ELEMENT_SET_NO": 999,
    "REV_AT_EPOCH": 11372,
    "BSTAR": 7.492e-05,
    "MEAN_MOTION_DOT": 8.09e-06,
    "MEAN_MOTION_DDOT": 0
  },
  {
    "OBJECT_NAME": "STARLINK-30083",
    "OBJECT_ID": "2023-056K",
    "EPOCH": "2025-05-05T20:28:00.793344",
    "MEAN_MOTION": 15.02540139,
    "ECCENTRICITY": 0.0001043,
    "INCLINATION": 43.0038,
    "RA_OF_ASC_NODE": 57.1201,
    "ARG_OF_PERICENTER": 272.246,
    "MEAN_ANOMALY": 87.8263,
    "EPHEMERIS_TYPE": 0,
    "CLASSIFICATION_TYPE": "U",
    "NORAD_CAT_ID": 56295,
    "ELEMENT_SET_NO": 999,
    "REV_AT_EPOCH": 11401,
    "BSTAR": 8.2425e-05,
    "MEAN_MOTION_DOT": 9.1e-06,
    "MEAN_MOTION_DDOT": 0
  },
  {
    "OBJECT_NAME": "STARLINK-30089",
    "OBJECT_ID": "2023-056L",
    "EPOCH": "2025-05-06T02:51:17.497728",
    "MEAN_MOTION": 15.02539003,
    "ECCENTRICITY": 0.0001433,
    "INCLINATION": 43.0039,
    "RA_OF_ASC_NODE": 42.6388,
    "ARG_OF_PERICENTER": 268.4467,
    "MEAN_ANOMALY": 91.6211,
    "EPHEMERIS_TYPE": 0,
    "CLASSIFICATION_TYPE": "U",
    "NORAD_CAT_ID": 56296,
    "ELEMENT_SET_NO": 999,
    "REV_AT_EPOCH": 11360,
    "BSTAR": -6.1153e-06,
    "MEAN_MOTION_DOT": -2.86e-06,
    "MEAN_MOTION_DDOT": 0
  },
  {
    "OBJECT_NAME": "STARLINK-30086",
    "OBJECT_ID": "2023-056M",
    "EPOCH": "2025-05-05T05:46:33.852576",
    "MEAN_MOTION": 15.02532013,
    "ECCENTRICITY": 0.0001133,
    "INCLINATION": 43.0036,
    "RA_OF_ASC_NODE": 86.3588,
    "ARG_OF_PERICENTER": 277.6677,
    "MEAN_ANOMALY": 82.4036,
    "EPHEMERIS_TYPE": 0,
    "CLASSIFICATION_TYPE": "U",
    "NORAD_CAT_ID": 56297,
    "ELEMENT_SET_NO": 999,
    "REV_AT_EPOCH": 11362,
    "BSTAR": 6.1042e-05,
    "MEAN_MOTION_DOT": 6.21e-06,
    "MEAN_MOTION_DDOT": 0
  },
  {
    "OBJECT_NAME": "STARLINK-30109",
    "OBJECT_ID": "2023-056N",
    "EPOCH": "2025-05-05T23:29:09.724992",
    "MEAN_MOTION": 15.02524486,
    "ECCENTRICITY": 0.000117,
    "INCLINATION": 43.0033,
    "RA_OF_ASC_NODE": 82.4367,
    "ARG_OF_PERICENTER": 274.7578,
    "MEAN_ANOMALY": 85.313,
    "EPHEMERIS_TYPE": 0,
    "CLASSIFICATION_TYPE": "U",
    "NORAD_CAT_ID": 56298,
    "ELEMENT_SET_NO": 999,
    "REV_AT_EPOCH": 11314,
    "BSTAR": -7.6839e-05,
    "MEAN_MOTION_DOT": -1.241e-05,
    "MEAN_MOTION_DDOT": 0
  },
  {
    "OBJECT_NAME": "STARLINK-30108",
    "OBJECT_ID": "2023-056P",
    "EPOCH": "2025-05-05T21:06:01.245312",
    "MEAN_MOTION": 15.02536666,
    "ECCENTRICITY": 8.82e-05,
    "INCLINATION": 43.0052,
    "RA_OF_ASC_NODE": 70.4176,
    "ARG_OF_PERICENTER": 260.4004,
    "MEAN_ANOMALY": 99.6739,
    "EPHEMERIS_TYPE": 0,
    "CLASSIFICATION_TYPE": "U",
    "NORAD_CAT_ID": 56299,
    "ELEMENT_SET_NO": 999,
    "REV_AT_EPOCH": 11392,
    "BSTAR": 7.3632e-05,
    "MEAN_MOTION_DOT": 7.91e-06,
    "MEAN_MOTION_DDOT": 0
  },
  {
    "OBJECT_NAME": "STARLINK-30104",
    "OBJECT_ID": "2023-056Q",
    "EPOCH": "2025-05-05T06:24:46.142208",
    "MEAN_MOTION": 15.02534002,
    "ECCENTRICITY": 9.25e-05,
    "INCLINATION": 43.003,
    "RA_OF_ASC_NODE": 85.7826,
    "ARG_OF_PERICENTER": 259.7086,
    "MEAN_ANOMALY": 100.3652,
    "EPHEMERIS_TYPE": 0,
    "CLASSIFICATION_TYPE": "U",
    "NORAD_CAT_ID": 56300,
    "ELEMENT_SET_NO": 999,
    "REV_AT_EPOCH": 11369,
    "BSTAR": 8.4502e-05,
    "MEAN_MOTION_DOT": 9.38e-06,
    "MEAN_MOTION_DDOT": 0
  },
  {
    "OBJECT_NAME": "STARLINK-30101",
    "OBJECT_ID": "2023-056R",
    "EPOCH": "2025-05-06T05:28:06.629664",
    "MEAN_MOTION": 15.02544996,
    "ECCENTRICITY": 8.63e-05,
    "INCLINATION": 43.0034,
    "RA_OF_ASC_NODE": 80.93,
    "ARG_OF_PERICENTER": 271.1501,
    "MEAN_ANOMALY": 88.9242,
    "EPHEMERIS_TYPE": 0,
    "CLASSIFICATION_TYPE": "U",
    "NORAD_CAT_ID": 56301,
    "ELEMENT_SET_NO": 999,
    "REV_AT_EPOCH": 11318,
    "BSTAR": -1.5469e-05,
    "MEAN_MOTION_DOT": -4.13e-06,
    "MEAN_MOTION_DDOT": 0
  },
  {
    "OBJECT_NAME": "STARLINK-30111",
    "OBJECT_ID": "2023-056S",
    "EPOCH": "2025-05-06T05:18:30.975840",
    "MEAN_MOTION": 15.02556368,
    "ECCENTRICITY": 0.0001642,
    "INCLINATION": 43.0028,
    "RA_OF_ASC_NODE": 80.8179,
    "ARG_OF_PERICENTER": 305.8668,
    "MEAN_ANOMALY": 54.2021,
    "EPHEMERIS_TYPE": 0,
    "CLASSIFICATION_TYPE": "U",
    "NORAD_CAT_ID": 56302,
    "ELEMENT_SET_NO": 999,
    "REV_AT_EPOCH": 11317,
    "BSTAR": 0.00048153,
    "MEAN_MOTION_DOT": 6.31e-05,
    "MEAN_MOTION_DDOT": 0
  },
  {
    "OBJECT_NAME": "STARLINK-30099",
    "OBJECT_ID": "2023-056U",
    "EPOCH": "2025-05-05T21:15:04.037760",
    "MEAN_MOTION": 15.02536256,
    "ECCENTRICITY": 0.0001066,
    "INCLINATION": 43.0041,
    "RA_OF_ASC_NODE": 82.5868,
    "ARG_OF_PERICENTER": 260.5025,
    "MEAN_ANOMALY": 99.5697,
    "EPHEMERIS_TYPE": 0,
    "CLASSIFICATION_TYPE": "U",
    "NORAD_CAT_ID": 56304,
    "ELEMENT_SET_NO": 999,
    "REV_AT_EPOCH": 11378,
    "BSTAR": 8.9058e-05,
    "MEAN_MOTION_DOT": 1e-05,
    "MEAN_MOTION_DDOT": 0
  },
  {
    "OBJECT_NAME": "STARLINK-30094",
    "OBJECT_ID": "2023-056V",
    "EPOCH": "2025-05-05T21:10:15.849696",
    "MEAN_MOTION": 15.02539214,
    "ECCENTRICITY": 0.0001159,
    "INCLINATION": 43.0035,
    "RA_OF_ASC_NODE": 82.5493,
    "ARG_OF_PERICENTER": 271.4134,
    "MEAN_ANOMALY": 88.6576,
    "EPHEMERIS_TYPE": 0,
    "CLASSIFICATION_TYPE": "U",
    "NORAD_CAT_ID": 56305,
    "ELEMENT_SET_NO": 999,
    "REV_AT_EPOCH": 11378,
    "BSTAR": 4.0265e-05,
    "MEAN_MOTION_DOT": 3.4e-06,
    "MEAN_MOTION_DDOT": 0
  },
  {
    "OBJECT_NAME": "STARLINK-30112",
    "OBJECT_ID": "2023-056W",
    "EPOCH": "2025-05-06T03:47:33.995040",
    "MEAN_MOTION": 15.02527937,
    "ECCENTRICITY": 9.32e-05,
    "INCLINATION": 43.0048,
    "RA_OF_ASC_NODE": 81.203,
    "ARG_OF_PERICENTER": 275.8729,
    "MEAN_ANOMALY": 84.2007,
    "EPHEMERIS_TYPE": 0,
    "CLASSIFICATION_TYPE": "U",
    "NORAD_CAT_ID": 56306,
    "ELEMENT_SET_NO": 999,
    "REV_AT_EPOCH": 11317,
    "BSTAR": -9.4827e-05,
    "MEAN_MOTION_DOT": -1.484e-05,
    "MEAN_MOTION_DDOT": 0
  },
  {
    "OBJECT_NAME": "STARLINK-6038",
    "OBJECT_ID": "2023-058A",
    "EPOCH": "2025-05-05T22:38:01.823424",
    "MEAN_MOTION": 15.01262699,
    "ECCENTRICITY": 0.0003284,
    "INCLINATION": 97.6549,
    "RA_OF_ASC_NODE": 128.0961,
    "ARG_OF_PERICENTER": 78.835,
    "MEAN_ANOMALY": 281.3244,
    "EPHEMERIS_TYPE": 0,
    "CLASSIFICATION_TYPE": "U",
    "NORAD_CAT_ID": 56317,
    "ELEMENT_SET_NO": 999,
    "REV_AT_EPOCH": 11160,
    "BSTAR": 5.4205e-05,
    "MEAN_MOTION_DOT": 6.37e-06,
    "MEAN_MOTION_DDOT": 0
  }
]